[{"OBJECT_NAME":"HAWK-A","OBJECT_ID":"2018-099H","EPOCH":"2026-03-09T16:13:51.062880","MEAN_MOTION":15.23231043,"ECCENTRICITY":0.00342596,"INCLINATION":97.4051,"RA_OF_ASC_NODE":122.2425,"ARG_OF_PERICENTER":275.5523,"MEAN_ANOMALY":84.1807,"EPHEMERIS_TYPE":0,"CLASSIFICATION_TYPE":"U","NORAD_CAT_ID":43765,"ELEMENT_SET_NO":999,"REV_AT_EPOCH":39794,"BSTAR":0.00036104215,"MEAN_MOTION_DOT":8.617e-5,"MEAN_MOTION_DDOT":0},{"OBJECT_NAME":"STARLINK-2040","OBJECT_ID":"2021-012AN","EPOCH":"2026-03-09T05:27:02.755872","MEAN_MOTION":15.29358641,"ECCENTRICITY":0.00013955,"INCLINATION":53.1596,"RA_OF_ASC_NODE":51.6846,"ARG_OF_PERICENTER":87.6283,"MEAN_ANOMALY":272.4877,"EPHEMERIS_TYPE":0,"CLASSIFICATION_TYPE":"U","NORAD_CAT_ID":47656,"ELEMENT_SET_NO":999,"REV_AT_EPOCH":28022,"BSTAR":6.79193e-7,"MEAN_MOTION_DOT":-3.36e-6,"MEAN_MOTION_DDOT":0}]
